GLOBALSTAR M024         
1 25883U 99043A   25307.65576919 -.00000100  00000+0 -12360-2 0  9992
2 25883  52.0028  65.9273 0000757 357.4875  15.9876 11.10170678130355
GLOBALSTAR M027         
1 25884U 99043B   25307.79460856 -.00000021  00000+0  16059-2 0  9990
2 25884  52.0168 147.5561 0020640 214.5900 145.3551 11.04372735156664
GLOBALSTAR M054         
1 25885U 99043C   25307.57545647 -.00000045  00000+0  66503-3 0  9995
2 25885  52.0130 251.9515 0005766  54.7439 116.2226 11.39222375134930
GLOBALSTAR M053         
1 25886U 99043D   25307.44429421 -.00000061  00000+0  20762-3 0  9998
2 25886  51.9968 207.0878 0003353 337.8091 193.2610 11.27667976135155
GLOBALSTAR M058         
1 25907U 99049A   25307.45140946 -.00000074  00000+0  13774-3 0  9990
2 25907  51.9914  97.2973 0002338 158.7729 201.3203 11.93203759558162
GLOBALSTAR M050         
1 25908U 99049B   25307.68886709 -.00000099  00000+0 -12178-3 0  9995
2 25908  51.9974  93.9174 0008200 312.6702  59.9597 12.07459693165041
GLOBALSTAR M033         
1 25909U 99049C   25307.75960772 -.00000109  00000+0 -16489-3 0  9998
2 25909  51.9926 315.9177 0013769 191.5114 168.5420 12.20292611552789
GLOBALSTAR M055         
1 25910U 99049D   25307.76811473 -.00000070  00000+0  20417-3 0  9996
2 25910  52.0030 319.8456 0007220  61.9893 298.1688 12.29434840185454
